{
  "type": "FeatureCollection",
  "features": [
    {
      "type": "Feature",
      "properties": {
        "norad_id": 38091,
        "name": "BEIDOU-2 G5 (C05)",
        "group": "gnss",
        "lat": -0.4077502919700621,
        "lon": -102.19090611160826,
        "alt_km": 35747.3750301598,
        "timestamp": "2025-12-25T07:00:34.288412+00:00",
        "meta_object_name": "BEIDOU-2 G5 (C05)",
        "meta_object_id": "2012-008A",
        "meta_epoch": "2025-12-24T21:56:20.279040",
        "meta_mean_motion": 1.00269863,
        "meta_eccentricity": 0.00130968,
        "meta_inclination": 3.1376,
        "meta_ra_of_asc_node": 70.6644,
        "meta_arg_of_pericenter": 232.215,
        "meta_mean_anomaly": 178.6217,
        "meta_ephemeris_type": 0,
        "meta_classification_type": "U",
        "meta_norad_cat_id": 38091,
        "meta_element_set_no": 999,
        "meta_rev_at_epoch": 5062,
        "meta_bstar": 0,
        "meta_mean_motion_dot": 7.7e-07,
        "meta_mean_motion_ddot": 0,
        "tle_line1": "1 38091U 12008A   25358.91412360  .00000077  00000+0  00000+0 0  9993",
        "tle_line2": "2 38091   3.1376  70.6644 0013096 232.2150 178.6217  1.00269863 50624"
      },
      "geometry": {
        "type": "Point",
        "coordinates": [
          -102.19090611160826,
          -0.4077502919700621
        ]
      }
    },
    {
      "type": "Feature",
      "properties": {
        "norad_id": 38250,
        "name": "BEIDOU-2 M3 (C11)",
        "group": "gnss",
        "lat": 40.812156336780944,
        "lon": -13.53190104450343,
        "alt_km": 21572.045248084887,
        "timestamp": "2025-12-25T07:00:34.288424+00:00",
        "meta_object_name": "BEIDOU-2 M3 (C11)",
        "meta_object_id": "2012-018A",
        "meta_epoch": "2025-12-24T03:22:03.617760",
        "meta_mean_motion": 1.86230154,
        "meta_eccentricity": 0.00241099,
        "meta_inclination": 55.9106,
        "meta_ra_of_asc_node": 310.7747,
        "meta_arg_of_pericenter": 275.3713,
        "meta_mean_anomaly": 84.3565,
        "meta_ephemeris_type": 0,
        "meta_classification_type": "U",
        "meta_norad_cat_id": 38250,
        "meta_element_set_no": 999,
        "meta_rev_at_epoch": 9268,
        "meta_bstar": 0,
        "meta_mean_motion_dot": -5.3e-07,
        "meta_mean_motion_ddot": 0,
        "tle_line1": "1 38250U 12018A   25358.14031965 -.00000053  00000+0  00000+0 0  9999",
        "tle_line2": "2 38250  55.9106 310.7747 0024109 275.3713  84.3565  1.86230154 92685"
      },
      "geometry": {
        "type": "Point",
        "coordinates": [
          -13.53190104450343,
          40.812156336780944
        ]
      }
    },
    {
      "type": "Feature",
      "properties": {
        "norad_id": 38251,
        "name": "BEIDOU-2 M4 (C12)",
        "group": "gnss",
        "lat": 55.08954607516456,
        "lon": 53.27883941672971,
        "alt_km": 21564.3530453877,
        "timestamp": "2025-12-25T07:00:34.288437+00:00",
        "meta_object_name": "BEIDOU-2 M4 (C12)",
        "meta_object_id": "2012-018B",
        "meta_epoch": "2025-12-24T01:44:14.261856",
        "meta_mean_motion": 1.86229893,
        "meta_eccentricity": 0.00152512,
        "meta_inclination": 55.8118,
        "meta_ra_of_asc_node": 310.0049,
        "meta_arg_of_pericenter": 279.3729,
        "meta_mean_anomaly": 80.4579,
        "meta_ephemeris_type": 0,
        "meta_classification_type": "U",
        "meta_norad_cat_id": 38251,
        "meta_element_set_no": 999,
        "meta_rev_at_epoch": 9268,
        "meta_bstar": 0,
        "meta_mean_motion_dot": -5.3e-07,
        "meta_mean_motion_ddot": 0,
        "tle_line1": "1 38251U 12018B   25358.07238729 -.00000053  00000+0  00000+0 0  9999",
        "tle_line2": "2 38251  55.8118 310.0049 0015251 279.3729  80.4579  1.86229893 92685"
      },
      "geometry": {
        "type": "Point",
        "coordinates": [
          53.27883941672971,
          55.08954607516456
        ]
      }
    },
    {
      "type": "Feature",
      "properties": {
        "norad_id": 38652,
        "name": "SES-5 (EGNOS/PRN 136)",
        "group": "gnss",
        "lat": -0.05935334114914555,
        "lon": -155.84118115371675,
        "alt_km": 35782.68765187597,
        "timestamp": "2025-12-25T07:00:34.288455+00:00",
        "meta_object_name": "SES-5 (EGNOS/PRN 136)",
        "meta_object_id": "2012-036A",
        "meta_epoch": "2025-12-24T13:07:25.928832",
        "meta_mean_motion": 1.00271671,
        "meta_eccentricity": 0.00019384,
        "meta_inclination": 0.0589,
        "meta_ra_of_asc_node": 304.4983,
        "meta_arg_of_pericenter": 325.2361,
        "meta_mean_anomaly": 25.432,
        "meta_ephemeris_type": 0,
        "meta_classification_type": "U",
        "meta_norad_cat_id": 38652,
        "meta_element_set_no": 999,
        "meta_rev_at_epoch": 4270,
        "meta_bstar": 0,
        "meta_mean_motion_dot": 5.5e-07,
        "meta_mean_motion_ddot": 0,
        "tle_line1": "1 38652U 12036A   25358.54682788  .00000055  00000+0  00000+0 0  9995",
        "tle_line2": "2 38652   0.0589 304.4983 0001938 325.2361  25.4320  1.00271671 42706"
      },
      "geometry": {
        "type": "Point",
        "coordinates": [
          -155.84118115371675,
          -0.05935334114914555
        ]
      }
    },
    {
      "type": "Feature",
      "properties": {
        "norad_id": 38775,
        "name": "BEIDOU-2 M6 (C14)",
        "group": "gnss",
        "lat": -50.825958372096686,
        "lon": 14.055834585131707,
        "alt_km": 21513.888329705544,
        "timestamp": "2025-12-25T07:00:34.288468+00:00",
        "meta_object_name": "BEIDOU-2 M6 (C14)",
        "meta_object_id": "2012-050B",
        "meta_epoch": "2025-12-24T07:41:05.368128",
        "meta_mean_motion": 1.86230801,
        "meta_eccentricity": 0.00114872,
        "meta_inclination": 56.388,
        "meta_ra_of_asc_node": 68.6832,
        "meta_arg_of_pericenter": 343.1884,
        "meta_mean_anomaly": 16.8281,
        "meta_ephemeris_type": 0,
        "meta_classification_type": "U",
        "meta_norad_cat_id": 38775,
        "meta_element_set_no": 999,
        "meta_rev_at_epoch": 9005,
        "meta_bstar": 0,
        "meta_mean_motion_dot": -2.4e-07,
        "meta_mean_motion_ddot": 0,
        "tle_line1": "1 38775U 12050B   25358.32020102 -.00000024  00000+0  00000+0 0  9996",
        "tle_line2": "2 38775  56.3880  68.6832 0011487 343.1884  16.8281  1.86230801 90056"
      },
      "geometry": {
        "type": "Point",
        "coordinates": [
          14.055834585131707,
          -50.825958372096686
        ]
      }
    },
    {
      "type": "Feature",
      "properties": {
        "norad_id": 38779,
        "name": "GSAT-10 (GAGAN/PRN 128)",
        "group": "gnss",
        "lat": -0.002252205542690786,
        "lon": -77.76973244506601,
        "alt_km": 35794.98434827172,
        "timestamp": "2025-12-25T07:00:34.288480+00:00",
        "meta_object_name": "GSAT-10 (GAGAN/PRN 128)",
        "meta_object_id": "2012-051B",
        "meta_epoch": "2025-12-24T22:22:53.622048",
        "meta_mean_motion": 1.00271102,
        "meta_eccentricity": 0.00021812,
        "meta_inclination": 0.0626,
        "meta_ra_of_asc_node": 262.1776,
        "meta_arg_of_pericenter": 219.7233,
        "meta_mean_anomaly": 30.5548,
        "meta_ephemeris_type": 0,
        "meta_classification_type": "U",
        "meta_norad_cat_id": 38779,
        "meta_element_set_no": 999,
        "meta_rev_at_epoch": 4835,
        "meta_bstar": 0,
        "meta_mean_motion_dot": -1.44e-06,
        "meta_mean_motion_ddot": 0,
        "tle_line1": "1 38779U 12051B   25358.93256507 -.00000144  00000+0  00000+0 0  9991",
        "tle_line2": "2 38779   0.0626 262.1776 0002181 219.7233  30.5548  1.00271102 48359"
      },
      "geometry": {
        "type": "Point",
        "coordinates": [
          -77.76973244506601,
          -0.002252205542690786
        ]
      }
    },
    {
      "type": "Feature",
      "properties": {
        "norad_id": 38833,
        "name": "GPS BIIF-3  (PRN 24)",
        "group": "gnss",
        "lat": -13.656390468111674,
        "lon": 140.37477873695008,
        "alt_km": 20104.909125309077,
        "timestamp": "2025-12-25T07:00:34.288491+00:00",
        "meta_object_name": "GPS BIIF-3  (PRN 24)",
        "meta_object_id": "2012-053A",
        "meta_epoch": "2025-12-24T07:38:21.199488",
        "meta_mean_motion": 2.00565058,
        "meta_eccentricity": 0.01760755,
        "meta_inclination": 53.5598,
        "meta_ra_of_asc_node": 150.7645,
        "meta_arg_of_pericenter": 64.1634,
        "meta_mean_anomaly": 297.6191,
        "meta_ephemeris_type": 0,
        "meta_classification_type": "U",
        "meta_norad_cat_id": 38833,
        "meta_element_set_no": 999,
        "meta_rev_at_epoch": 9593,
        "meta_bstar": 0,
        "meta_mean_motion_dot": 8.3e-07,
        "meta_mean_motion_ddot": 0,
        "tle_line1": "1 38833U 12053A   25358.31830092  .00000083  00000+0  00000+0 0  9994",
        "tle_line2": "2 38833  53.5598 150.7645 0176075  64.1634 297.6191  2.00565058 95932"
      },
      "geometry": {
        "type": "Point",
        "coordinates": [
          140.37477873695008,
          -13.656390468111674
        ]
      }
    }
  ]
}